SIRIUSSAT-2             
1 43596U 98067PH  20344.36554324  .08904132  12494-4  57179-3 0  9995
2 43596  51.6062  99.6513 0006261 312.7483  99.6145 16.40921535132742
1998-067PN              
1 43638U 98067PN  20349.57003436  .00026630  00000-0  22036-3 0  9993
2 43638  51.6342 117.1946 0001950 343.2802  16.8130 15.70064441124911
1998-067PP              
1 43639U 98067PP  20349.56330847  .00067821  00000-0  32436-3 0  9994
2 43639  51.6309  99.0258 0004264 347.6744  12.4154 15.82124404125157
STARS-ME                
1 43640U 98067PQ  20349.60210920  .00036913  00000-0  26394-3 0  9994
2 43640  51.6322 110.5686 0003739 345.1163  14.9725 15.73361269125009
ISS DEB (SEDA-AP)       
1 43870U 98067PU  20349.79155968  .00006932  00000-0  91402-4 0  9990
2 43870  51.6350 141.2923 0003734   5.9395 354.1641 15.59670844112775
CATSAT-2                
1 44029U 98067PV  20350.06860100  .00057372  00000-0  36253-3 0  9996
2 44029  51.6389 115.3798 0001868  23.7137 336.3949 15.76029780106888
DELPHINI                
1 44030U 98067PW  20350.15225767  .00084846  00000-0  45216-3 0  9997
2 44030  51.6312 111.1971 0002880 352.5723   7.5235 15.79689737106918
UNITE                   
1 44031U 98067PX  20349.77227248  .00022885  00000-0  21860-3 0  9994
2 44031  51.6362 130.6441 0001986  25.9785 334.1310 15.66633016106623
CATSAT-1                
1 44033U 98067PZ  20350.06839112  .00056810  00000-0  35943-3 0  9991
2 44033  51.6389 115.3884 0001911  22.7688 337.3396 15.76004858106794
ISS DEB                 
1 44303U 98067QA  20349.78865894  .00007374  00000-0  10931-3 0  9995
2 44303  51.6382 158.6591 0004715 275.2361  84.8092 15.56373426 87827
ISS DEB                 
1 44304U 98067QB  20349.58274135  .00074930  00000-0  49906-3 0  9992
2 44304  51.6338 136.1961 0005316 271.5802  88.4588 15.74699330 88116
ISS DEB                 
1 44305U 98067QC  20349.56292606  .00193792  00000-0  72732-3 0  9995
2 44305  51.6249 126.0172 0006330 310.1970  49.8480 15.86741255 88246
ISS DEB                 
1 44306U 98067QD  20349.21861875  .00008724  00000-0  12702-3 0  9999
2 44306  51.6368 161.5237 0005902 269.4883  90.5432 15.56587461 87746
RAAVANA-1               
1 44329U 98067QE  20348.75828598  .00028123  00000-0  30163-3 0  9993
2 44329  51.6355 152.4670 0004694 303.1751  56.8793 15.63570481 84995
UGUISU                  
1 44330U 98067QF  20349.74233505  .00024927  00000-0  26933-3 0  9991
2 44330  51.6333 147.7412 0004758 307.4600  52.5962 15.63453077 85123
NEPALISAT-1             
1 44331U 98067QG  20349.70803744  .00025269  00000-0  27123-3 0  9998
2 44331  51.6337 147.5137 0004704 310.8202  49.2384 15.63614296 85131
SPOOQY-1                
1 44332U 98067QH  20349.15319769  .00026435  00000-0  28660-3 0  9990
2 44332  51.6344 150.5731 0003867 309.7396  50.3258 15.63334194 85009
